OBJECT_NAME,OBJECT_ID,EPOCH,MEAN_MOTION,ECCENTRICITY,INCLINATION,RA_OF_ASC_NODE,ARG_OF_PERICENTER,MEAN_ANOMALY,EPHEMERIS_TYPE,CLASSIFICATION_TYPE,NORAD_CAT_ID,ELEMENT_SET_NO,REV_AT_EPOCH,BSTAR,MEAN_MOTION_DOT,MEAN_MOTION_DDOT
PROBA-1,2001-049B,2026-06-08T12:10:54.764256,15.07458945,.0055516,97.9598,167.7374,150.9495,209.4840,0,U,26958,999,34231,.2038E-3,.3128E-4,0
CUTE-1 (CO-55),2003-031E,2026-06-08T06:08:51.976896,14.24330308,.0008945,98.6735,167.9273,204.6801,155.3951,0,U,27844,999,19040,.14775E-3,.298E-5,0
CUBESAT XI-IV (CO-57),2003-031J,2026-06-07T23:00:57.894624,14.23616071,.00085151,98.6766,167.3539,225.8669,134.1810,0,U,27848,999,19006,.14070546E-3,.277E-5,0
APRIZESAT 4,2009-041D,2026-06-08T11:46:54.774336,14.83868035,.0043016,98.1412,234.6381,351.6681,8.3813,0,U,35684,999,91007,.88428E-4,.686E-5,0
APRIZESAT 3,2009-041F,2026-06-08T09:43:23.925792,14.96216040,.006274,98.2053,312.2095,95.9665,264.8710,0,U,35686,999,91506,.11559E-3,.1288E-4,0
PROBA-2,2009-059B,2026-06-08T12:08:35.787264,14.54858836,.0012247,98.2451,342.9793,311.5420,48.4726,0,U,36037,999,88026,.59168E-4,.209E-5,0
APRIZESAT 5,2011-044E,2026-06-08T08:37:53.760000,14.81056897,.0053023,98.2453,92.1500,32.4681,327.9774,0,U,37792,999,79748,.15802E-3,.1196E-4,0
APRIZESAT 6,2011-044F,2026-06-08T11:53:58.370208,14.76903299,.0044338,98.2371,69.8178,113.0317,59.6592,0,U,37793,999,79586,.11201E-3,.744E-5,0
PROBA-V,2013-021A,2026-06-08T11:22:44.338656,14.23595177,.0004743,98.3580,138.5111,144.4505,215.6992,0,U,39159,999,67987,.52713E-4,.79E-6,0
APRIZESAT 7,2013-066A,2026-06-08T08:46:38.836128,14.91546034,.0034439,97.7704,112.7125,239.4434,120.3384,0,U,39416,999,67991,.12421E-3,.12E-4,0
APRIZESAT 8,2013-066K,2026-06-08T09:32:20.237280,14.87635749,.0044855,97.8218,106.9882,316.3535,43.4137,0,U,39425,999,67836,.12633E-3,.1112E-4,0
BUGSAT-1 (TITA),2014-033E,2026-06-08T12:27:25.676352,15.15495304,.0027418,98.0420,251.5618,208.1634,151.8115,0,U,40014,999,65452,.34764E-3,.6569E-4,0
SAUDISAT 4,2014-033G,2026-06-08T09:28:13.305216,14.79532730,.0046216,97.7574,305.8342,101.6982,258.9421,0,U,40016,999,64477,.10852E-3,.775E-5,0
APRIZESAT 9,2014-033J,2026-06-08T07:35:05.659872,14.74202863,.0065108,97.9049,292.7321,228.0087,131.5566,0,U,40018,999,64225,.10757E-3,.681E-5,0
APRIZESAT 10,2014-033K,2026-06-08T01:53:46.264416,14.70875008,.00776267,97.9639,286.2421,303.4380,55.9420,0,U,40019,999,64091,.82368046E-4,.474E-5,0
TECHDEMOSAT-1 (TDS-1),2014-037H,2026-06-08T11:54:29.625408,15.13167387,.0004631,98.3815,150.8486,306.9167,53.1637,0,U,40076,999,64691,.44715E-3,.7858E-4,0
TECHNOSAT,2017-042E,2026-06-08T09:44:44.716704,15.04901037,.0018858,97.4267,317.3998,121.9012,238.4052,0,U,42829,999,48538,.1999E-3,.278E-4,0
FLYING LAPTOP,2017-042G,2026-06-08T12:28:36.188256,15.01089764,.0019144,97.4657,315.3891,150.0384,210.1941,0,U,42831,999,48515,.29663E-3,.3752E-4,0
HAWK-A,2018-099H,2026-06-08T00:40:34.913568,15.24536500,.00335587,97.3915,211.3837,319.6598,40.2151,0,U,43765,999,41170,.29991016E-3,.7426E-4,0
HAWK-B,2018-099AN,2026-06-08T02:30:32.529888,15.22727709,.00312269,97.3967,210.8933,338.1496,21.8406,0,U,43794,999,41165,.29599678E-3,.6926E-4,0
HAWK-C,2018-099AT,2026-06-07T21:27:57.434400,15.27974189,.00392355,97.3892,212.1188,320.0343,39.8010,0,U,43799,999,41249,.312012E-3,.8636E-4,0
SALSAT,2020-068K,2026-06-07T23:42:24.407136,15.29667638,.00089117,97.8853,161.4934,345.1768,14.9208,0,U,46495,999,31395,.28698063E-3,.8175E-4,0
HAWK-2C,2021-006CT,2026-06-08T00:33:49.475520,15.34554187,.00056604,97.2283,203.5168,220.5779,139.5044,0,U,47502,999,29809,.21139986E-3,.7002E-4,0
HAWK-2A,2021-006CW,2026-06-08T00:37:32.619072,15.34568999,.0005099,97.2324,204.1917,224.9271,135.1561,0,U,47505,999,29809,.2083673E-3,.6903E-4,0
HAWK-2B,2021-006CZ,2026-06-08T00:31:48.545760,15.34642979,.00056423,97.2194,202.5343,222.6102,137.4704,0,U,47508,999,29809,.23870566E-3,.794E-4,0
HAWK-3B,2021-059BE,2026-06-08T12:34:51.883104,15.68822921,.0003863,97.6672,355.4179,11.5267,348.6082,0,U,48931,999,27649,.38239E-3,.4376E-3,0
HAWK-3C,2021-059BX,2026-06-08T12:34:24.069216,15.68822702,.0004331,97.6796,1.0881,12.1288,348.0076,0,U,48948,999,27649,.35662E-3,.40791E-3,0
HAWK-3A,2021-059CG,2026-06-08T12:34:15.640032,15.68821173,.0004344,97.6737,358.3003,14.2423,345.8959,0,U,48957,999,27649,.3648E-3,.41732E-3,0
HAWK-5C,2022-057Y,2026-06-08T09:36:19.027008,15.51078510,.000539,97.6587,318.5039,108.4821,251.7017,0,U,52754,999,22498,.29692E-3,.17207E-3,0
HAWK-5B,2022-057AA,2026-06-08T09:36:06.310656,15.51078713,.0006022,97.6597,316.8526,101.2657,258.9271,0,U,52756,999,22498,.3019E-3,.175E-3,0
